*******************************************************************************
Ephemeris / WWW_USER Mon Mar 10 06:55:28 2025 Pasadena, USA      / Horizons    
*******************************************************************************
Target body name: (2018 WD2)                      {source: JPL#7}
Center body name: Earth (399)                     {source: DE441}
Center-site name: Mauna Kea
*******************************************************************************
Start time      : A.D. 2018-Dec-24 03:59:00.0000 UT      
Stop  time      : A.D. 2018-Dec-24 16:43:00.0000 UT      
Step-size       : 1 minutes
*******************************************************************************
Target pole/equ : undefined
Target radii    : undefined                                                    
Center geodetic : 204.5278, 19.8260847, 4.21024   {E-lon(deg),Lat(deg),Alt(km)}
Center cylindric: 204.5278, 6006.35451, 2151.0229 {E-lon(deg),Dxy(km),Dz(km)}
Center pole/equ : ITRF93                          {East-longitude positive}
Center radii    : 6378.137, 6378.137, 6356.752 km {Equator_a, b, pole_c}       
Target primary  : Sun
Vis. interferer : MOON (R_eq= 1737.400) km        {source: DE441}
Rel. light bend : Sun                             {source: DE441}
Rel. lght bnd GM: 1.3271E+11 km^3/s^2                                          
Small-body perts: Yes                             {source: SB441-N16}
Atmos refraction: NO (AIRLESS)
RA format       : HMS
Time format     : CAL 
Calendar mode   : Mixed Julian/Gregorian
RTS-only print  : NO       
EOP file        : eop.250307.p250603                                           
EOP coverage    : DATA-BASED 1962-JAN-20 TO 2025-MAR-07. PREDICTS-> 2025-JUN-02
Units conversion: 1 au= 149597870.700 km, c= 299792.458 km/s, 1 day= 86400.0 s 
Table cut-offs 1: Elevation (-90.0deg=NO ),Airmass (>38.000=NO), Daylight (YES)
Table cut-offs 2: Solar elongation (  0.0,180.0=NO ),Local Hour Angle( 0.0=NO )
Table cut-offs 3: RA/DEC angular rate (     0.0=NO )                           
*******************************************************************************
Initial IAU76/J2000 heliocentric ecliptic osculating elements (au, days, deg.):
  EPOCH=  2458442.5 ! 2018-Nov-20.00 (TDB)         Residual RMS= .32422        
   EC= .524986067713519    QR= .9778174985080528   TP= 2458471.2675125618      
   OM= 251.0855257113189   W=  198.8561547827716   IN= 2.860917524648221       
  Equivalent ICRF heliocentric cartesian coordinates (au, au/d):
   X= 5.933978759455335E-01  Y= 7.796199626272187E-01  Z= 3.534710331364960E-01
  VX=-1.894544763705440E-02 VY= 7.774789113426014E-03 VZ= 2.252803318104249E-03
Asteroid physical parameters (km, seconds, rotational period in hours):        
   GM= n.a.                RAD= n.a.               ROTPER= n.a.                
   H= 26.2                 G= .150                 B-V= n.a.                   
                           ALBEDO= n.a.            STYP= n.a.                  
*******************************************************************************
 Date__(UT)__HR:MN     R.A._________(ICRF)_________DEC
******************************************************
$$SOE
 2018-Dec-24 10:08  m  12 04 25.042541 -16 28 57.85901
 2018-Dec-24 10:09  m  12 04 25.101045 -16 28 58.23340
 2018-Dec-24 10:10  m  12 04 25.159414 -16 28 58.60778
 2018-Dec-24 10:11  m  12 04 25.217650 -16 28 58.98216
 2018-Dec-24 10:12  m  12 04 25.275751 -16 28 59.35652
 2018-Dec-24 10:13  m  12 04 25.333717 -16 28 59.73087
 2018-Dec-24 10:14  m  12 04 25.391550 -16 29 00.10521
 2018-Dec-24 10:15  m  12 04 25.449248 -16 29 00.47953
 2018-Dec-24 10:16  m  12 04 25.506812 -16 29 00.85382
 2018-Dec-24 10:17  m  12 04 25.564242 -16 29 01.22809
 2018-Dec-24 10:18  m  12 04 25.621538 -16 29 01.60234
 2018-Dec-24 10:19  m  12 04 25.678700 -16 29 01.97656
 2018-Dec-24 10:20  m  12 04 25.735727 -16 29 02.35075
 2018-Dec-24 10:21  m  12 04 25.792621 -16 29 02.72491
 2018-Dec-24 10:22  m  12 04 25.849380 -16 29 03.09904
 2018-Dec-24 10:23  m  12 04 25.906005 -16 29 03.47312
 2018-Dec-24 10:24  m  12 04 25.962496 -16 29 03.84717
 2018-Dec-24 10:25  m  12 04 26.018853 -16 29 04.22118
 2018-Dec-24 10:26  m  12 04 26.075077 -16 29 04.59514
 2018-Dec-24 10:27  m  12 04 26.131166 -16 29 04.96905
 2018-Dec-24 10:28  m  12 04 26.187121 -16 29 05.34292
 2018-Dec-24 10:29  r  12 04 26.242943 -16 29 05.71674
 2018-Dec-24 10:30  m  12 04 26.298630 -16 29 06.09050
 2018-Dec-24 10:31  m  12 04 26.354184 -16 29 06.46421
 2018-Dec-24 10:32  m  12 04 26.409605 -16 29 06.83786
 2018-Dec-24 10:33  m  12 04 26.464891 -16 29 07.21145
 2018-Dec-24 10:34  m  12 04 26.520044 -16 29 07.58497
 2018-Dec-24 10:35  m  12 04 26.575064 -16 29 07.95843
 2018-Dec-24 10:36  m  12 04 26.629949 -16 29 08.33183
 2018-Dec-24 10:37  m  12 04 26.684702 -16 29 08.70515
 2018-Dec-24 10:38  m  12 04 26.739321 -16 29 09.07841
 2018-Dec-24 10:39  m  12 04 26.793807 -16 29 09.45158
 2018-Dec-24 10:40  m  12 04 26.848160 -16 29 09.82468
 2018-Dec-24 10:41  m  12 04 26.902379 -16 29 10.19771
 2018-Dec-24 10:42  m  12 04 26.956465 -16 29 10.57065
 2018-Dec-24 10:43  m  12 04 27.010419 -16 29 10.94351
 2018-Dec-24 10:44  m  12 04 27.064239 -16 29 11.31628
 2018-Dec-24 10:45  m  12 04 27.117927 -16 29 11.68896
 2018-Dec-24 10:46  m  12 04 27.171482 -16 29 12.06155
 2018-Dec-24 10:47  m  12 04 27.224904 -16 29 12.43405
 2018-Dec-24 10:48  m  12 04 27.278194 -16 29 12.80646
 2018-Dec-24 10:49  m  12 04 27.331351 -16 29 13.17877
 2018-Dec-24 10:50  m  12 04 27.384376 -16 29 13.55097
 2018-Dec-24 10:51  m  12 04 27.437268 -16 29 13.92308
 2018-Dec-24 10:52  m  12 04 27.490028 -16 29 14.29508
 2018-Dec-24 10:53  m  12 04 27.542656 -16 29 14.66698
 2018-Dec-24 10:54  m  12 04 27.595152 -16 29 15.03876
 2018-Dec-24 10:55  m  12 04 27.647517 -16 29 15.41043
 2018-Dec-24 10:56  m  12 04 27.699749 -16 29 15.78199
 2018-Dec-24 10:57  m  12 04 27.751850 -16 29 16.15344
 2018-Dec-24 10:58  m  12 04 27.803819 -16 29 16.52476
 2018-Dec-24 10:59  m  12 04 27.855657 -16 29 16.89597
 2018-Dec-24 11:00  m  12 04 27.907364 -16 29 17.26705
 2018-Dec-24 11:01  m  12 04 27.958939 -16 29 17.63801
 2018-Dec-24 11:02  m  12 04 28.010383 -16 29 18.00884
 2018-Dec-24 11:03  m  12 04 28.061696 -16 29 18.37954
 2018-Dec-24 11:04  m  12 04 28.112879 -16 29 18.75011
 2018-Dec-24 11:05  m  12 04 28.163930 -16 29 19.12054
 2018-Dec-24 11:06  m  12 04 28.214852 -16 29 19.49084
 2018-Dec-24 11:07  m  12 04 28.265642 -16 29 19.86100
 2018-Dec-24 11:08  m  12 04 28.316303 -16 29 20.23101
 2018-Dec-24 11:09  m  12 04 28.366833 -16 29 20.60089
 2018-Dec-24 11:10  m  12 04 28.417233 -16 29 20.97062
 2018-Dec-24 11:11  m  12 04 28.467504 -16 29 21.34020
 2018-Dec-24 11:12  m  12 04 28.517645 -16 29 21.70963
 2018-Dec-24 11:13  m  12 04 28.567656 -16 29 22.07890
 2018-Dec-24 11:14  m  12 04 28.617538 -16 29 22.44803
 2018-Dec-24 11:15  m  12 04 28.667290 -16 29 22.81699
 2018-Dec-24 11:16  m  12 04 28.716914 -16 29 23.18580
 2018-Dec-24 11:17  m  12 04 28.766408 -16 29 23.55445
 2018-Dec-24 11:18  m  12 04 28.815774 -16 29 23.92293
 2018-Dec-24 11:19  m  12 04 28.865011 -16 29 24.29124
 2018-Dec-24 11:20  m  12 04 28.914119 -16 29 24.65939
 2018-Dec-24 11:21  m  12 04 28.963100 -16 29 25.02737
 2018-Dec-24 11:22  m  12 04 29.011952 -16 29 25.39517
 2018-Dec-24 11:23  m  12 04 29.060676 -16 29 25.76280
 2018-Dec-24 11:24  m  12 04 29.109273 -16 29 26.13025
 2018-Dec-24 11:25  m  12 04 29.157742 -16 29 26.49752
 2018-Dec-24 11:26  m  12 04 29.206084 -16 29 26.86461
 2018-Dec-24 11:27  m  12 04 29.254298 -16 29 27.23152
 2018-Dec-24 11:28  m  12 04 29.302386 -16 29 27.59824
 2018-Dec-24 11:29  m  12 04 29.350346 -16 29 27.96477
 2018-Dec-24 11:30  m  12 04 29.398180 -16 29 28.33112
 2018-Dec-24 11:31  m  12 04 29.445888 -16 29 28.69727
 2018-Dec-24 11:32  m  12 04 29.493469 -16 29 29.06322
 2018-Dec-24 11:33  m  12 04 29.540924 -16 29 29.42898
 2018-Dec-24 11:34  m  12 04 29.588253 -16 29 29.79454
 2018-Dec-24 11:35  m  12 04 29.635457 -16 29 30.15989
 2018-Dec-24 11:36  m  12 04 29.682535 -16 29 30.52505
 2018-Dec-24 11:37  m  12 04 29.729488 -16 29 30.88999
 2018-Dec-24 11:38  m  12 04 29.776316 -16 29 31.25473
 2018-Dec-24 11:39  m  12 04 29.823019 -16 29 31.61926
 2018-Dec-24 11:40  m  12 04 29.869597 -16 29 31.98358
 2018-Dec-24 11:41  m  12 04 29.916051 -16 29 32.34768
 2018-Dec-24 11:42  m  12 04 29.962381 -16 29 32.71157
 2018-Dec-24 11:43  m  12 04 30.008587 -16 29 33.07523
 2018-Dec-24 11:44  m  12 04 30.054669 -16 29 33.43868
 2018-Dec-24 11:45  m  12 04 30.100628 -16 29 33.80190
 2018-Dec-24 11:46  m  12 04 30.146463 -16 29 34.16490
 2018-Dec-24 11:47  m  12 04 30.192176 -16 29 34.52767
 2018-Dec-24 11:48  m  12 04 30.237765 -16 29 34.89021
 2018-Dec-24 11:49  m  12 04 30.283232 -16 29 35.25251
 2018-Dec-24 11:50  m  12 04 30.328577 -16 29 35.61459
 2018-Dec-24 11:51  m  12 04 30.373799 -16 29 35.97643
 2018-Dec-24 11:52  m  12 04 30.418900 -16 29 36.33803
 2018-Dec-24 11:53  m  12 04 30.463879 -16 29 36.69938
 2018-Dec-24 11:54  m  12 04 30.508736 -16 29 37.06050
 2018-Dec-24 11:55  m  12 04 30.553473 -16 29 37.42137
 2018-Dec-24 11:56  m  12 04 30.598088 -16 29 37.78200
 2018-Dec-24 11:57  m  12 04 30.642583 -16 29 38.14238
 2018-Dec-24 11:58  m  12 04 30.686958 -16 29 38.50250
 2018-Dec-24 11:59  m  12 04 30.731212 -16 29 38.86238
 2018-Dec-24 12:00  m  12 04 30.775347 -16 29 39.22200
 2018-Dec-24 12:01  m  12 04 30.819362 -16 29 39.58136
 2018-Dec-24 12:02  m  12 04 30.863257 -16 29 39.94046
 2018-Dec-24 12:03  m  12 04 30.907034 -16 29 40.29930
 2018-Dec-24 12:04  m  12 04 30.950691 -16 29 40.65788
 2018-Dec-24 12:05  m  12 04 30.994231 -16 29 41.01619
 2018-Dec-24 12:06  m  12 04 31.037652 -16 29 41.37423
 2018-Dec-24 12:07  m  12 04 31.080955 -16 29 41.73201
 2018-Dec-24 12:08  m  12 04 31.124140 -16 29 42.08951
 2018-Dec-24 12:09  m  12 04 31.167208 -16 29 42.44674
 2018-Dec-24 12:10  m  12 04 31.210158 -16 29 42.80370
